GLOBALSTAR M023 [+]     
1 25621U 99004A   23325.35500068 -.00000134  00000+0 -16932-3 0  9993
2 25621  52.0132   0.6767 0009561 297.6908  75.8237 12.62447987143256
GLOBALSTAR M040 [-]     
1 25622U 99004B   23325.42563043 -.00000044  00000+0  33454-3 0  9991
2 25622  51.9939   3.7794 0000578 189.3454 183.9164 12.61960086142816
GLOBALSTAR M036 [-]     
1 25623U 99004C   23325.40033132 -.00000003  00000+0  11594-2 0  9996
2 25623  51.9978 312.6354 0011443  34.9226 116.6176 11.86560797110866
GLOBALSTAR M038 [-]     
1 25624U 99004D   23325.89533392 -.00000071  00000+0  19968-3 0  9992
2 25624  51.9976 282.5270 0001680 318.8339  77.4358 12.32488151131682
GLOBALSTAR M022 [-]     
1 25649U 99012A   23325.71446356 -.00000095  00000+0 -98150-4 0  9990
2 25649  52.0056  49.8226 0003306 117.7907  43.9555 12.02472163107389
GLOBALSTAR M041 [-]     
1 25650U 99012B   23325.21406685 -.00000036  00000+0  63495-3 0  9995
2 25650  52.0023 275.1379 0001570 280.7295  79.3364 11.96648584109567
GLOBALSTAR M046 [-]     
1 25651U 99012C   23325.62478395 -.00000183  00000+0 -10424-2 0  9995
2 25651  52.0079  21.1365 0002413 179.8169 339.2779 12.09378585114614
GLOBALSTAR M037 [+]     
1 25652U 99012D   23325.64009228 -.00000056  00000+0  26583-3 0  9995
2 25652  51.9979 130.6472 0001952  30.4328  48.0791 12.62389367138831
